[{"OBJECT_NAME":"STARLINK-11320 [DTC]","OBJECT_ID":"2024-209D","EPOCH":"2025-11-17T22:51:32.073120","MEAN_MOTION":15.6973428,"ECCENTRICITY":0.0001232,"INCLINATION":53.1573,"RA_OF_ASC_NODE":202.4287,"ARG_OF_PERICENTER":86.276,"MEAN_ANOMALY":273.8398,"EPHEMERIS_TYPE":0,"CLASSIFICATION_TYPE":"U","NORAD_CAT_ID":61942,"ELEMENT_SET_NO":999,"REV_AT_EPOCH":5912,"BSTAR":0.0016835,"MEAN_MOTION_DOT":0.00208786,"MEAN_MOTION_DDOT":0},{"OBJECT_NAME":"STARLINK-11425 [DTC]","OBJECT_ID":"2024-209E","EPOCH":"2025-11-17T22:44:28.218912","MEAN_MOTION":15.69742,"ECCENTRICITY":0.0001104,"INCLINATION":53.1583,"RA_OF_ASC_NODE":202.3959,"ARG_OF_PERICENTER":77.1825,"MEAN_ANOMALY":282.9317,"EPHEMERIS_TYPE":0,"CLASSIFICATION_TYPE":"U","NORAD_CAT_ID":61943,"ELEMENT_SET_NO":999,"REV_AT_EPOCH":5912,"BSTAR":0.0017476,"MEAN_MOTION_DOT":0.00217045,"MEAN_MOTION_DDOT":0},{"OBJECT_NAME":"STARLINK-11422 [DTC]","OBJECT_ID":"2024-209F","EPOCH":"2025-11-17T22:37:23.682144","MEAN_MOTION":15.69785444,"ECCENTRICITY":9.58e-5,"INCLINATION":53.1584,"RA_OF_ASC_NODE":202.3641,"ARG_OF_PERICENTER":98.7447,"MEAN_ANOMALY":261.3679,"EPHEMERIS_TYPE":0,"CLASSIFICATION_TYPE":"U","NORAD_CAT_ID":61944,"ELEMENT_SET_NO":999,"REV_AT_EPOCH":5912,"BSTAR":0.0015509,"MEAN_MOTION_DOT":0.00192324,"MEAN_MOTION_DDOT":0},{"OBJECT_NAME":"STARLINK-11421 [DTC]","OBJECT_ID":"2024-209G","EPOCH":"2025-11-17T22:30:20.539008","MEAN_MOTION":15.69733569,"ECCENTRICITY":8.33e-5,"INCLINATION":53.1582,"RA_OF_ASC_NODE":202.3301,"ARG_OF_PERICENTER":43.8915,"MEAN_ANOMALY":316.2169,"EPHEMERIS_TYPE":0,"CLASSIFICATION_TYPE":"U","NORAD_CAT_ID":61945,"ELEMENT_SET_NO":999,"REV_AT_EPOCH":5912,"BSTAR":0.0016933,"MEAN_MOTION_DOT":0.00210034,"MEAN_MOTION_DDOT":0},{"OBJECT_NAME":"STARLINK-11410 [DTC]","OBJECT_ID":"2024-209H","EPOCH":"2025-11-18T02:58:19.503840","MEAN_MOTION":15.69756518,"ECCENTRICITY":0.0002115,"INCLINATION":53.1567,"RA_OF_ASC_NODE":201.3558,"ARG_OF_PERICENTER":145.9199,"MEAN_ANOMALY":214.1955,"EPHEMERIS_TYPE":0,"CLASSIFICATION_TYPE":"U","NORAD_CAT_ID":61946,"ELEMENT_SET_NO":999,"REV_AT_EPOCH":5919,"BSTAR":0.0014716,"MEAN_MOTION_DOT":0.00182008,"MEAN_MOTION_DDOT":0},{"OBJECT_NAME":"STARLINK-11390 [DTC]","OBJECT_ID":"2024-209J","EPOCH":"2025-11-17T22:16:12.941184","MEAN_MOTION":15.69742612,"ECCENTRICITY":0.0001532,"INCLINATION":53.1584,"RA_OF_ASC_NODE":202.2655,"ARG_OF_PERICENTER":65.3925,"MEAN_ANOMALY":294.7252,"EPHEMERIS_TYPE":0,"CLASSIFICATION_TYPE":"U","NORAD_CAT_ID":61947,"ELEMENT_SET_NO":999,"REV_AT_EPOCH":5916,"BSTAR":0.0020046,"MEAN_MOTION_DOT":0.00250059,"MEAN_MOTION_DDOT":0},{"OBJECT_NAME":"STARLINK-11414 [DTC]","OBJECT_ID":"2024-209K","EPOCH":"2025-11-17T23:19:38.724672","MEAN_MOTION":15.69725526,"ECCENTRICITY":0.0001482,"INCLINATION":53.1581,"RA_OF_ASC_NODE":201.8215,"ARG_OF_PERICENTER":52.4707,"MEAN_ANOMALY":307.6445,"EPHEMERIS_TYPE":0,"CLASSIFICATION_TYPE":"U","NORAD_CAT_ID":61948,"ELEMENT_SET_NO":999,"REV_AT_EPOCH":5917,"BSTAR":0.0011514,"MEAN_MOTION_DOT":0.00141396,"MEAN_MOTION_DDOT":0},{"OBJECT_NAME":"STARLINK-11424 [DTC]","OBJECT_ID":"2024-209L","EPOCH":"2025-11-17T23:26:42.437184","MEAN_MOTION":15.69736093,"ECCENTRICITY":0.0001621,"INCLINATION":53.1574,"RA_OF_ASC_NODE":201.8537,"ARG_OF_PERICENTER":53.1726,"MEAN_ANOMALY":306.944,"EPHEMERIS_TYPE":0,"CLASSIFICATION_TYPE":"U","NORAD_CAT_ID":61949,"ELEMENT_SET_NO":999,"REV_AT_EPOCH":5913,"BSTAR":0.0011145,"MEAN_MOTION_DOT":0.00136834,"MEAN_MOTION_DDOT":0},{"OBJECT_NAME":"STARLINK-11423 [DTC]","OBJECT_ID":"2024-209M","EPOCH":"2025-11-17T22:09:09.169056","MEAN_MOTION":15.6973165,"ECCENTRICITY":0.0001147,"INCLINATION":53.1572,"RA_OF_ASC_NODE":202.2348,"ARG_OF_PERICENTER":73.0384,"MEAN_ANOMALY":287.0759,"EPHEMERIS_TYPE":0,"CLASSIFICATION_TYPE":"U","NORAD_CAT_ID":61950,"ELEMENT_SET_NO":999,"REV_AT_EPOCH":5916,"BSTAR":0.0018476,"MEAN_MOTION_DOT":0.00229755,"MEAN_MOTION_DDOT":0},{"OBJECT_NAME":"STARLINK-11395 [DTC]","OBJECT_ID":"2024-209N","EPOCH":"2025-11-17T15:55:21.147744","MEAN_MOTION":15.69715878,"ECCENTRICITY":0.000124,"INCLINATION":53.1568,"RA_OF_ASC_NODE":203.4536,"ARG_OF_PERICENTER":105.7986,"MEAN_ANOMALY":254.3169,"EPHEMERIS_TYPE":0,"CLASSIFICATION_TYPE":"U","NORAD_CAT_ID":61951,"ELEMENT_SET_NO":999,"REV_AT_EPOCH":5908,"BSTAR":0.0020169,"MEAN_MOTION_DOT":0.0025136,"MEAN_MOTION_DDOT":0},{"OBJECT_NAME":"STARLINK-32572","OBJECT_ID":"2024-209P","EPOCH":"2025-11-18T03:46:50.299968","MEAN_MOTION":15.30181496,"ECCENTRICITY":0.0001043,"INCLINATION":53.1611,"RA_OF_ASC_NODE":300.2621,"ARG_OF_PERICENTER":102.064,"MEAN_ANOMALY":258.0477,"EPHEMERIS_TYPE":0,"CLASSIFICATION_TYPE":"U","NORAD_CAT_ID":61952,"ELEMENT_SET_NO":999,"REV_AT_EPOCH":5782,"BSTAR":0.0015742,"MEAN_MOTION_DOT":0.00046529,"MEAN_MOTION_DDOT":0},{"OBJECT_NAME":"STARLINK-32585","OBJECT_ID":"2024-209Q","EPOCH":"2025-11-18T03:07:29.374176","MEAN_MOTION":15.30198346,"ECCENTRICITY":0.0001059,"INCLINATION":53.1626,"RA_OF_ASC_NODE":300.7965,"ARG_OF_PERICENTER":115.1354,"MEAN_ANOMALY":244.9757,"EPHEMERIS_TYPE":0,"CLASSIFICATION_TYPE":"U","NORAD_CAT_ID":61953,"ELEMENT_SET_NO":999,"REV_AT_EPOCH":5781,"BSTAR":0.00093296,"MEAN_MOTION_DOT":0.00027373,"MEAN_MOTION_DDOT":0},{"OBJECT_NAME":"STARLINK-32574","OBJECT_ID":"2024-209R","EPOCH":"2025-11-18T03:22:41.282976","MEAN_MOTION":15.30222206,"ECCENTRICITY":0.0001708,"INCLINATION":53.1622,"RA_OF_ASC_NODE":300.8626,"ARG_OF_PERICENTER":99.9339,"MEAN_ANOMALY":260.1855,"EPHEMERIS_TYPE":0,"CLASSIFICATION_TYPE":"U","NORAD_CAT_ID":61954,"ELEMENT_SET_NO":999,"REV_AT_EPOCH":5783,"BSTAR":0.001308,"MEAN_MOTION_DOT":0.00038608,"MEAN_MOTION_DDOT":0},{"OBJECT_NAME":"STARLINK-32583","OBJECT_ID":"2024-209S","EPOCH":"2025-11-18T04:32:25.556352","MEAN_MOTION":15.30186507,"ECCENTRICITY":0.0001519,"INCLINATION":53.1609,"RA_OF_ASC_NODE":300.4538,"ARG_OF_PERICENTER":72.9064,"MEAN_ANOMALY":287.2103,"EPHEMERIS_TYPE":0,"CLASSIFICATION_TYPE":"U","NORAD_CAT_ID":61955,"ELEMENT_SET_NO":999,"REV_AT_EPOCH":5784,"BSTAR":0.0014877,"MEAN_MOTION_DOT":0.00043943,"MEAN_MOTION_DDOT":0},{"OBJECT_NAME":"STARLINK-32273","OBJECT_ID":"2024-209T","EPOCH":"2025-11-18T03:54:26.066016","MEAN_MOTION":15.30194218,"ECCENTRICITY":0.0001276,"INCLINATION":53.1597,"RA_OF_ASC_NODE":300.2904,"ARG_OF_PERICENTER":110.4195,"MEAN_ANOMALY":249.6942,"EPHEMERIS_TYPE":0,"CLASSIFICATION_TYPE":"U","NORAD_CAT_ID":61956,"ELEMENT_SET_NO":999,"REV_AT_EPOCH":5782,"BSTAR":0.00097712,"MEAN_MOTION_DOT":0.00028687,"MEAN_MOTION_DDOT":0},{"OBJECT_NAME":"STARLINK-32359","OBJECT_ID":"2024-209U","EPOCH":"2025-11-18T04:23:18.766176","MEAN_MOTION":15.30189925,"ECCENTRICITY":0.0001402,"INCLINATION":53.1597,"RA_OF_ASC_NODE":300.414,"ARG_OF_PERICENTER":58.9366,"MEAN_ANOMALY":301.1773,"EPHEMERIS_TYPE":0,"CLASSIFICATION_TYPE":"U","NORAD_CAT_ID":61957,"ELEMENT_SET_NO":999,"REV_AT_EPOCH":5784,"BSTAR":0.00018496,"MEAN_MOTION_DOT":5.121e-5,"MEAN_MOTION_DDOT":0}]
