STARLINK-11320 [DTC]    
1 61942U 24209D   25321.95245455  .00208786  00000+0  16835-2 0  9996
2 61942  53.1573 202.4287 0001232  86.2760 273.8398 15.69734280 59122
STARLINK-11425 [DTC]    
1 61943U 24209E   25321.94754883  .00217045  00000+0  17476-2 0  9996
2 61943  53.1583 202.3959 0001104  77.1825 282.9317 15.69742000 59129
STARLINK-11422 [DTC]    
1 61944U 24209F   25321.94263521  .00192324  00000+0  15509-2 0  9998
2 61944  53.1584 202.3641 0000958  98.7447 261.3679 15.69785444 59125
STARLINK-11421 [DTC]    
1 61945U 24209G   25321.93773772  .00210034  00000+0  16933-2 0  9993
2 61945  53.1582 202.3301 0000833  43.8915 316.2169 15.69733569 59125
STARLINK-11410 [DTC]    
1 61946U 24209H   25322.12383685  .00182008  00000+0  14716-2 0  9992
2 61946  53.1567 201.3558 0002115 145.9199 214.1955 15.69756518 59190
STARLINK-11390 [DTC]    
1 61947U 24209J   25321.92792756  .00250059  00000+0  20046-2 0  9998
2 61947  53.1584 202.2655 0001532  65.3925 294.7252 15.69742612 59163
STARLINK-11414 [DTC]    
1 61948U 24209K   25321.97197598  .00141396  00000+0  11514-2 0  9990
2 61948  53.1581 201.8215 0001482  52.4707 307.6445 15.69725526 59171
STARLINK-11424 [DTC]    
1 61949U 24209L   25321.97688006  .00136834  00000+0  11145-2 0  9991
2 61949  53.1574 201.8537 0001621  53.1726 306.9440 15.69736093 59139
STARLINK-11423 [DTC]    
1 61950U 24209M   25321.92302279  .00229755  00000+0  18476-2 0  9992
2 61950  53.1572 202.2348 0001147  73.0384 287.0759 15.69731650 59167
STARLINK-11395 [DTC]    
1 61951U 24209N   25321.66343921  .00251360  00000+0  20169-2 0  9992
2 61951  53.1568 203.4536 0001240 105.7986 254.3169 15.69715878 59087
STARLINK-32572          
1 61952U 24209P   25322.15752662  .00046529  00000+0  15742-2 0  9994
2 61952  53.1611 300.2621 0001043 102.0640 258.0477 15.30181496 57820
STARLINK-32585          
1 61953U 24209Q   25322.13020109  .00027373  00000+0  93296-3 0  9994
2 61953  53.1626 300.7965 0001059 115.1354 244.9757 15.30198346 57813
STARLINK-32574          
1 61954U 24209R   25322.14075559  .00038608  00000+0  13080-2 0  9990
2 61954  53.1622 300.8626 0001708  99.9339 260.1855 15.30222206 57832
STARLINK-32583          
1 61955U 24209S   25322.18918468  .00043943  00000+0  14877-2 0  9993
2 61955  53.1609 300.4538 0001519  72.9064 287.2103 15.30186507 57842
STARLINK-32273          
1 61956U 24209T   25322.16280169  .00028687  00000+0  97712-3 0  9990
2 61956  53.1597 300.2904 0001276 110.4195 249.6942 15.30194218 57826
STARLINK-32359          
1 61957U 24209U   25322.18285609  .00005121  00000+0  18496-3 0  9997
2 61957  53.1597 300.4140 0001402  58.9366 301.1773 15.30189925 57845
